start=new Date('2021-10-12T00:00:00.000Z').valueOf();
sats=[{"NORAD_CAT_ID":"46713","COUNTRY_CODE":"US","PERIAPSIS":"546.300","DECAY_DATE":null,"GP_ID":"186930471","TLE_LINE1":"1 46713U 20073AV  21284.70185771  .00000739  00000-0  68448-4 0  9999","MEAN_MOTION_DOT":"0.00000739","MEAN_ELEMENT_THEORY":"SGP4","ARG_OF_PERICENTER":"78.6204","INCLINATION":"53.0548","CENTER_NAME":"EARTH","RCS_SIZE":"LARGE","MEAN_ANOMALY":"281.4928","OBJECT_NAME":"STARLINK-1815","SEMIMAJOR_AXIS":"6925.318","REV_AT_EPOCH":"5446","OBJECT_TYPE":"PAYLOAD","REF_FRAME":"TEME","ELEMENT_SET_NO":"999","PERIOD":"95.592","TLE_LINE2":"2 46713  53.0548 269.1450 0001275  78.6204 281.4928 15.06409850 54468","FILE":"3157563","MEAN_MOTION_DDOT":"0.0000000000000","APOAPSIS":"548.066","TIME_SYSTEM":"UTC","CLASSIFICATION_TYPE":"U","OBJECT_ID":"2020-073AV","BSTAR":"0.00006844800000","EPHEMERIS_TYPE":"0","LAUNCH_DATE":"2020-10-18","MEAN_MOTION":"15.06409850","SITE":"AFETR","RA_OF_ASC_NODE":"269.1450","EPOCH":"2021-10-11T16:50:40.506144","ECCENTRICITY":"0.00012750"},{"CLASSIFICATION_TYPE":"U","OBJECT_ID":"2020-073AW","BSTAR":"0.00016529000000","EPHEMERIS_TYPE":"0","LAUNCH_DATE":"2020-10-18","SITE":"AFETR","MEAN_MOTION":"15.06405707","RA_OF_ASC_NODE":"269.1817","EPOCH":"2021-10-11T16:34:45.776640","ECCENTRICITY":"0.00014100","ELEMENT_SET_NO":"999","PERIOD":"95.592","TLE_LINE2":"2 46714  53.0551 269.1817 0001410  70.8031 289.3111 15.06405707 54461","FILE":"3157563","MEAN_MOTION_DDOT":"0.0000000000000","APOAPSIS":"548.173","TIME_SYSTEM":"UTC","OBJECT_TYPE":"PAYLOAD","REF_FRAME":"TEME","OBJECT_NAME":"STARLINK-1816","SEMIMAJOR_AXIS":"6925.331","REV_AT_EPOCH":"5446","MEAN_ANOMALY":"289.3111","RCS_SIZE":"LARGE","MEAN_ELEMENT_THEORY":"SGP4","ARG_OF_PERICENTER":"70.8031","INCLINATION":"53.0551","CENTER_NAME":"EARTH","NORAD_CAT_ID":"46714","COUNTRY_CODE":"US","PERIAPSIS":"546.220","DECAY_DATE":null,"GP_ID":"186929219","TLE_LINE1":"1 46714U 20073AW  21284.69080760  .00002182  00000-0  16529-3 0  9996","MEAN_MOTION_DOT":"0.00002182"},{"GP_ID":"186928970","TLE_LINE1":"1 46715U 20073AX  21284.68711982  .00001700  00000-0  13300-3 0  9992","MEAN_MOTION_DOT":"0.00001700","NORAD_CAT_ID":"46715","COUNTRY_CODE":"US","PERIAPSIS":"546.289","DECAY_DATE":null,"ARG_OF_PERICENTER":"73.3700","CENTER_NAME":"EARTH","INCLINATION":"53.0542","MEAN_ELEMENT_THEORY":"SGP4","RCS_SIZE":"LARGE","MEAN_ANOMALY":"286.7433","SEMIMAJOR_AXIS":"6925.332","REV_AT_EPOCH":"5446","OBJECT_NAME":"STARLINK-1817","OBJECT_TYPE":"PAYLOAD","REF_FRAME":"TEME","APOAPSIS":"548.105","TIME_SYSTEM":"UTC","PERIOD":"95.592","ELEMENT_SET_NO":"999","TLE_LINE2":"2 46715  53.0542 269.2054 0001311  73.3700 286.7433 15.06405280 54461","MEAN_MOTION_DDOT":"0.0000000000000","FILE":"3157563","LAUNCH_DATE":"2020-10-18","MEAN_MOTION":"15.06405280","SITE":"AFETR","RA_OF_ASC_NODE":"269.2054","EPOCH":"2021-10-11T16:29:27.152448","ECCENTRICITY":"0.00013110","CLASSIFICATION_TYPE":"U","OBJECT_ID":"2020-073AX","BSTAR":"0.00013300000000","EPHEMERIS_TYPE":"0"},{"MEAN_ELEMENT_THEORY":"SGP4","ARG_OF_PERICENTER":"74.6415","CENTER_NAME":"EARTH","INCLINATION":"53.0544","NORAD_CAT_ID":"46716","COUNTRY_CODE":"US","PERIAPSIS":"546.448","DECAY_DATE":null,"GP_ID":"186930221","TLE_LINE1":"1 46716U 20073AY  21284.70232443  .00000210  00000-0  32968-4 0  9993","MEAN_MOTION_DOT":"0.00000210","MEAN_ANOMALY":"285.4692","RCS_SIZE":"LARGE","OBJECT_TYPE":"PAYLOAD","REF_FRAME":"TEME","OBJECT_NAME":"STARLINK-1818","SEMIMAJOR_AXIS":"6925.322","REV_AT_EPOCH":"5425","CLASSIFICATION_TYPE":"U","OBJECT_ID":"2020-073AY","BSTAR":"0.00003296800000","EPHEMERIS_TYPE":"0","LAUNCH_DATE":"2020-10-18","MEAN_MOTION":"15.06408766","SITE":"AFETR","RA_OF_ASC_NODE":"284.1431","ECCENTRICITY":"0.00010660","EPOCH":"2021-10-11T16:51:20.830752","PERIOD":"95.592","ELEMENT_SET_NO":"999","TLE_LINE2":"2 46716  53.0544 284.1431 0001066  74.6415 285.4692 15.06408766 54255","FILE":"3157563","MEAN_MOTION_DDOT":"0.0000000000000","APOAPSIS":"547.925","TIME_SYSTEM":"UTC"},{"TIME_SYSTEM":"UTC","APOAPSIS":"548.195","FILE":"3157068","MEAN_MOTION_DDOT":"0.0000000000000","TLE_LINE2":"2 46717  53.0545 271.1950 0001399  72.6922 287.4220 15.06395919 54398","PERIOD":"95.592","ELEMENT_SET_NO":"999","EPOCH":"2021-10-11T05:47:13.565472","ECCENTRICITY":"0.00013990","RA_OF_ASC_NODE":"271.1950","SITE":"AFETR","MEAN_MOTION":"15.06395919","LAUNCH_DATE":"2020-10-18","EPHEMERIS_TYPE":"0","BSTAR":"0.00011548000000","OBJECT_ID":"2020-073AZ","CLASSIFICATION_TYPE":"U","REV_AT_EPOCH":"5439","SEMIMAJOR_AXIS":"6925.361","OBJECT_NAME":"STARLINK-1820","REF_FRAME":"TEME","OBJECT_TYPE":"PAYLOAD","RCS_SIZE":"LARGE","MEAN_ANOMALY":"287.4220","MEAN_MOTION_DOT":"0.00001439","TLE_LINE1":"1 46717U 20073AZ  21284.24112923  .00001439  00000-0  11548-3 0  9997","GP_ID":"186895751","DECAY_DATE":null,"PERIAPSIS":"546.257","COUNTRY_CODE":"US","NORAD_CAT_ID":"46717","INCLINATION":"53.0545","CENTER_NAME":"EARTH","ARG_OF_PERICENTER":"72.6922","MEAN_ELEMENT_THEORY":"SGP4"},{"LAUNCH_DATE":"2020-10-18","MEAN_MOTION":"15.06403572","SITE":"AFETR","RA_OF_ASC_NODE":"285.4337","EPOCH":"2021-10-11T09:57:20.847168","ECCENTRICITY":"0.00015470","CLASSIFICATION_TYPE":"U","OBJECT_ID":"2020-073BA","BSTAR":"0.00004438600000","EPHEMERIS_TYPE":"0","APOAPSIS":"548.274","TIME_SYSTEM":"UTC","ELEMENT_SET_NO":"999","PERIOD":"95.592","TLE_LINE2":"2 46718  53.0554 285.4337 0001547  70.7957 289.3200 15.06403572 54213","MEAN_MOTION_DDOT":"0.0000000000000","FILE":"3157068","OBJECT_TYPE":"PAYLOAD","REF_FRAME":"TEME","REV_AT_EPOCH":"5421","SEMIMAJOR_AXIS":"6925.338","OBJECT_NAME":"STARLINK-1821","MEAN_ANOMALY":"289.3200","RCS_SIZE":"LARGE","ARG_OF_PERICENTER":"70.7957","CENTER_NAME":"EARTH","INCLINATION":"53.0554","MEAN_ELEMENT_THEORY":"SGP4","GP_ID":"186896506","TLE_LINE1":"1 46718U 20073BA  21284.41482462  .00000380  00000-0  44386-4 0  9996","MEAN_MOTION_DOT":"0.00000380","NORAD_CAT_ID":"46718","COUNTRY_CODE":"US","PERIAPSIS":"546.131","DECAY_DATE":null},{"RCS_SIZE":"LARGE","MEAN_ANOMALY":"218.9939","MEAN_MOTION_DOT":"0.00002185","TLE_LINE1":"1 46719U 20073BB  21284.59682207  .00002185  00000-0  16550-3 0  9991","GP_ID":"186895267","DECAY_DATE":null,"PERIAPSIS":"545.316","COUNTRY_CODE":"US","NORAD_CAT_ID":"46719","INCLINATION":"53.0553","CENTER_NAME":"EARTH","ARG_OF_PERICENTER":"141.1243","MEAN_ELEMENT_THEORY":"SGP4","TIME_SYSTEM":"UTC","APOAPSIS":"549.023","MEAN_MOTION_DDOT":"0.0000000000000","FILE":"3157068","TLE_LINE2":"2 46719  53.0553 249.5995 0002677 141.1243 218.9939 15.06414381 54734","ELEMENT_SET_NO":"999","PERIOD":"95.591","ECCENTRICITY":"0.00026770","EPOCH":"2021-10-11T14:19:25.426848","RA_OF_ASC_NODE":"249.5995","SITE":"AFETR","MEAN_MOTION":"15.06414381","LAUNCH_DATE":"2020-10-18","EPHEMERIS_TYPE":"0","BSTAR":"0.00016550000000","OBJECT_ID":"2020-073BB","CLASSIFICATION_TYPE":"U","REV_AT_EPOCH":"5473","SEMIMAJOR_AXIS":"6925.304","OBJECT_NAME":"STARLINK-1822","REF_FRAME":"TEME","OBJECT_TYPE":"PAYLOAD"},{"EPHEMERIS_TYPE":"0","BSTAR":"0.00185710000000","OBJECT_ID":"2020-073BC","CLASSIFICATION_TYPE":"U","ECCENTRICITY":"0.00017870","EPOCH":"2021-10-11T07:12:28.228608","RA_OF_ASC_NODE":"243.9499","MEAN_MOTION":"15.40925737","SITE":"AFETR","LAUNCH_DATE":"2020-10-18","FILE":"3157068","MEAN_MOTION_DDOT":"0.0000000000000","TLE_LINE2":"2 46720  53.0541 243.9499 0001787  13.8503 346.2550 15.40925737 54784","ELEMENT_SET_NO":"999","PERIOD":"93.450","TIME_SYSTEM":"UTC","APOAPSIS":"444.597","REF_FRAME":"TEME","OBJECT_TYPE":"PAYLOAD","OBJECT_NAME":"STARLINK-1823","SEMIMAJOR_AXIS":"6821.513","REV_AT_EPOCH":"5478","MEAN_ANOMALY":"346.2550","RCS_SIZE":"LARGE","MEAN_ELEMENT_THEORY":"SGP4","INCLINATION":"53.0541","CENTER_NAME":"EARTH","ARG_OF_PERICENTER":"13.8503","DECAY_DATE":null,"PERIAPSIS":"442.159","COUNTRY_CODE":"US","NORAD_CAT_ID":"46720","MEAN_MOTION_DOT":"0.00077953","TLE_LINE1":"1 46720U 20073BC  21284.30032672  .00077953  00000-0  18571-2 0  9996","GP_ID":"186895518"},{"RCS_SIZE":"LARGE","MEAN_ANOMALY":"284.6175","NORAD_CAT_ID":"46722","COUNTRY_CODE":"US","PERIAPSIS":"546.311","DECAY_DATE":null,"GP_ID":"186930472","TLE_LINE1":"1 46722U 20073BE  21284.70601818 -.00001291  00000-0 -67772-4 0  9999","MEAN_MOTION_DOT":"-0.00001291","MEAN_ELEMENT_THEORY":"SGP4","ARG_OF_PERICENTER":"75.4962","CENTER_NAME":"EARTH","INCLINATION":"53.0548","PERIOD":"95.593","ELEMENT_SET_NO":"999","TLE_LINE2":"2 46722  53.0548 284.1095 0001332  75.4962 284.6175 15.06393603 54254","MEAN_MOTION_DDOT":"0.0000000000000","FILE":"3157563","APOAPSIS":"548.156","TIME_SYSTEM":"UTC","CLASSIFICATION_TYPE":"U","OBJECT_ID":"2020-073BE","BSTAR":"-0.00006777200000","EPHEMERIS_TYPE":"0","LAUNCH_DATE":"2020-10-18","MEAN_MOTION":"15.06393603","SITE":"AFETR","RA_OF_ASC_NODE":"284.1095","ECCENTRICITY":"0.00013320","EPOCH":"2021-10-11T16:56:39.970752","OBJECT_NAME":"STARLINK-1825","REV_AT_EPOCH":"5425","SEMIMAJOR_AXIS":"6925.368","OBJECT_TYPE":"PAYLOAD","REF_FRAME":"TEME"},{"COUNTRY_CODE":"US","NORAD_CAT_ID":"46723","DECAY_DATE":null,"PERIAPSIS":"546.229","GP_ID":"186902608","MEAN_MOTION_DOT":"0.00003472","TLE_LINE1":"1 46723U 20073BF  21284.59912459  .00003472  00000-0  25186-3 0  9996","MEAN_ELEMENT_THEORY":"SGP4","ARG_OF_PERICENTER":"74.4288","CENTER_NAME":"EARTH","INCLINATION":"53.0556","RCS_SIZE":"LARGE","MEAN_ANOMALY":"285.6860","OBJECT_NAME":"STARLINK-1826","REV_AT_EPOCH":"5528","SEMIMAJOR_AXIS":"6925.361","OBJECT_TYPE":"PAYLOAD","REF_FRAME":"TEME","TLE_LINE2":"2 46723  53.0556 244.5954 0001440  74.4288 285.6860 15.06395822 55289","ELEMENT_SET_NO":"999","PERIOD":"95.592","MEAN_MOTION_DDOT":"0.0000000000000","FILE":"3157323","APOAPSIS":"548.224","TIME_SYSTEM":"UTC","OBJECT_ID":"2020-073BF","CLASSIFICATION_TYPE":"U","EPHEMERIS_TYPE":"0","BSTAR":"0.00025186000000","SITE":"AFETR","MEAN_MOTION":"15.06395822","LAUNCH_DATE":"2020-10-18","EPOCH":"2021-10-11T14:22:44.364576","ECCENTRICITY":"0.00014400","RA_OF_ASC_NODE":"244.5954"}];
